1 36273U 99025DXA 18242.20749614  .00000070  00000-0  61181-4 0  9994
2 36273  99.6431 232.9155 0100161 175.6857 184.5199 14.13603268545915
1 36274U 99025DXB 18241.17397083  .00000630  00000-0  42633-3 0  9991
2 36274  99.1914 233.1731 0080789  89.3307 333.7937 14.02491165531916
1 36278U 99025DXF 18233.20122859 +.00000091 +00000-0 +72023-4 0  9995
2 36278 099.2463 029.1971 0063251 241.2530 118.2277 14.13727996557154
1 36279U 99025DXG 18242.39158046 -.00000004  00000-0  19763-4 0  9990
2 36279  98.6927 296.0620 0064062 118.0626 242.7045 14.13496665516727
1 36280U 99025DXH 18241.08439376  .00000212  00000-0  16245-3 0  9996
2 36280  99.0097 286.9477 0066303 308.4513  80.4716 14.02985664490419
1 36281U 99025DXJ 18241.37067440 +.00000230 +00000-0 +32218-3 0  9996
2 36281 099.2606 304.8370 0322110 004.0635 356.3004 13.47587128485594
1 36283U 99025DXL 18241.85831818  .00000453  00000-0  90764-4 0  9997
2 36283  99.4414 110.9839 0142386 276.5713  81.9292 14.62057151593168
1 36289U 08053K   18241.70829340  .00000182  00000-0  21880-4 0  9997
2 36289  97.7063 221.1851 0014426 168.8159 191.3385 14.94907662522138
1 36290U 08053L   18241.73976369 -.00000308 +00000-0 -20908-4 0  9998
2 36290 097.6335 224.8827 0021270 136.9442 223.3449 14.98301707301819
1 36291U 08056G   18242.24713936  .00000144  00000-0  10318-3 0  9997
2 36291  98.4113  53.6591 0175962 206.4715 152.7384 14.02892091500105
1 36292U 08056H   18242.39784433  .00000280  00000-0  19382-3 0  9995
2 36292  98.5744  99.8037 0163563 286.3339  71.9895 14.00382199500837
1 36293U 01049QN  11360.11946871 +.00006660 +00000-0 +10944-2 0  9993
2 36293 097.8436 224.6670 0115746 126.8097 224.4155 14.66525754253419
1 36294U 00033E   11155.37890151 -.00010230 +00000-0 -19214-2 0  9994
2 36294 098.2991 206.5319 0016321 128.4357 231.6048 14.64487700179454
1 36304U 99057SV  18242.27526019  .00000672  00000-0  14951-3 0  9993
2 36304  98.7883 250.6494 0062194 154.9305 205.4935 14.59404206760680
1 36317U 99057SW  12262.82654397 +.00008310 +00000-0 +23171-2 0  9995
2 36317 098.2292 239.0088 0008866 057.8207 300.5862 14.46498096205182
1 36366U 93036AYT 18241.66262613 +.00000279 +00000-0 +14352-3 0  9999
2 36366 074.0738 352.3715 0114120 318.2543 040.9933 14.16562942484774
1 36367U 93036AYU 18235.75397116 +.00000135 +00000-0 +11473-3 0  9992
2 36367 074.0978 010.0599 0288475 357.5531 002.4159 13.78288340207081
1 36368U 93036AYV 18241.63293383  .00000565  00000-0  28088-3 0  9995
2 36368  74.1584 108.9096 0149259 344.0358  15.6103 14.13662330454296
1 36369U 93036AYW 18239.14598452  .00000629  00000-0  18156-3 0  9990
2 36369  74.0417  53.6247 0027224  86.9540 273.4733 14.46446229473104
1 36371U 93036AYY 18241.96379999  .00000639  00000-0  20719-3 0  9998
2 36371  74.0244 104.4030 0022951  73.4341 286.9332 14.40806356470681
1 36372U 93036AYZ 18241.37618105  .00001229  00000-0  37212-3 0  9991
2 36372  74.0126 129.6787 0046992 108.8627 251.7633 14.42725357470452
1 36375U 93036AZC 18237.63026536  .00000918  00000-0  19389-3 0  9998
2 36375  74.0485 337.9299 0016103  19.7615 340.4171 14.60796317488055
1 36378U 93036AZF 18242.23920571  .00002015  00000-0  22222-3 0  9995
2 36378  74.0579  78.8886 0085014 112.0930 248.9304 14.85606489479641
1 36379U 93036AZG 18241.10407675  .00000160  00000-0  67956-4 0  9999
2 36379  74.0142 140.5327 0049210 180.9316 247.6497 14.32281683490060
1 36380U 93036AZH 18241.08440131  .00019182  00000-0  70997-3 0  9994
2 36380  73.9723  30.4687 0010121 108.7656 251.4644 15.27580962484422
1 36381U 93036AZJ 18242.10989443  .00001317  00000-0  41543-3 0  9999
2 36381  74.0256 150.2658 0053449 125.7606 234.8536 14.40464544465828
1 36383U 93036AZL 13296.83179861 +.00008729 +00000-0 +24920-2 0  9993
2 36383 073.8221 100.1751 0170930 139.0065 226.7337 14.37040104210981
1 36384U 93036AZM 18241.83794984 +.00001029 +00000-0 +26690-3 0  9991
2 36384 074.0310 041.6095 0018458 044.1814 316.0817 14.50933064482515
1 36385U 93036AZN 18241.93854317 +.00000509 +00000-0 +12942-3 0  9997
2 36385 073.9860 109.0783 0223799 186.0446 173.8004 14.39468036466024
1 36387U 93036AZQ 18242.10277956  .00001211  00000-0  39014-3 0  9997
2 36387  74.0008 155.0446 0060053 159.1623 264.1580 14.39322410464227
1 36388U 93036AZR 13077.20668407 -.00000040 +00000-0 +00000-0 0  9995
2 36388 073.9593 030.2761 0101647 288.4450 070.6169 14.73089513187652
1 36390U 97051VU  18242.20926877  .00000487  00000-0  11849-3 0  9996
2 36390  86.3027  41.1202 0048334 143.9888 216.4590 14.49902468496207
1 36419U 93036AZS 18240.17148124 +.00001120 +00000-0 +40647-3 0  9995
2 36419 073.8490 172.1103 0105883 265.4265 093.4784 14.31501276266690
1 36420U 93036AZT 18241.38319537  .00000075  00000-0  35689-4 0  9998
2 36420  74.0374 117.4782 0018375 140.8280 341.6993 14.34795606469592
1 36422U 93036AZV 18241.77176860  .00001667  00000-0  21897-3 0  9996
2 36422  74.0103 164.0248 0117008 340.3832  19.2857 14.76480149492909
1 36423U 93036AZW 18241.14339593 +.00001972 +00000-0 +74462-3 0  9997
2 36423 073.8322 045.1172 0301317 163.4347 197.6906 14.09842290279812
1 36424U 93036AZX 18241.58183098  .00000928  00000-0  36916-3 0  9995
2 36424  74.1828 343.2156 0102533 176.2852 183.9083 14.27133866459865
1 36430U 93036BAD 18238.33170333 +.00000157 +00000-0 +77097-4 0  9999
2 36430 074.0050 239.5718 0104506 285.6445 073.3189 14.23099850266061
1 36432U 93036BAF 18237.45736601  .00004880  00000-0  28487-3 0  9994
2 36432  73.7111 276.6904 0042392 342.0745  17.8948 15.11490287474548
1 36434U 93036BAH 13228.56050817 +.00003568 +00000-0 +13066-2 0  9999
2 36434 074.0702 267.4289 0034551 358.8433 322.1003 14.32889054205161
1 36435U 93036BAJ 18231.06995213 +.00000867 +00000-0 +29840-3 0  9999
2 36435 073.8289 146.1039 0095826 251.3871 107.6855 14.35050731198909
1 36437U 93036BAL 18241.09499081 +.00000614 +00000-0 +18254-3 0  9994
2 36437 073.9538 027.6576 0029528 133.0648 227.2989 14.45079583274349
1 36439U 93036BAN 18241.47797079 +.00000109 +00000-0 +12525-3 0  9990
2 36439 073.9701 293.5216 0449236 061.4537 303.1019 13.41559394228627
1 36441U 93036BAQ 18241.58612927  .00000441  00000-0  48783-4 0  9998
2 36441  73.8453 319.1267 0171385 254.0621 104.1613 14.81335691475614
1 36442U 93036BAR 18241.88257962  .00000444  00000-0  13457-3 0  9998
2 36442  73.9891  72.6408 0039570 110.3345 250.2070 14.44695846472286
1 36447U 93036BAW 18241.59106603  .00002232  00000-0  17929-3 0  9991
2 36447  73.9336 320.3393 0081227 152.6096 207.9408 14.98182476479739
1 36448U 93036BAX 18241.14532465  .00001243  00000-0  39265-3 0  9990
2 36448  74.0885 163.2611 0045960  55.9422 304.6084 14.40626190455518
1 36450U 93036BAZ 13089.48240103 +.00003607 +00000-0 +11742-2 0  9995
2 36450 074.0398 140.7396 0032971 235.7057 124.0885 14.38788761183892
1 36451U 93036BBA 18241.08790686 +.00000787 +00000-0 +38519-3 0  9991
2 36451 073.9427 019.4666 0211218 044.4719 074.8344 14.08487449466600
1 36453U 93036BBC 18241.89332442 +.00000391 +00000-0 +13305-3 0  9991
2 36453 073.9300 076.1736 0086776 199.5390 225.6868 14.37903683461108
1 36454U 93036BBD 18235.43388428 +.00001769 +00000-0 +26463-3 0  9999
2 36454 074.0037 259.3620 0010239 057.6608 302.5555 14.75508953330232
1 36456U 93036BBF 14183.06912349 +.00003814 +00000-0 +14473-2 0  9993
2 36456 074.0436 075.9736 0061913 063.4710 297.2768 14.30331568268964
1 36457U 93036BBG 13063.87464931 +.00002647 +00000-0 +70111-3 0  9993
2 36457 074.0490 138.3420 0046066 343.0822 016.8798 14.48644601180181
1 36459U 93036BBJ 18234.84566575 +.00000224 +00000-0 +12731-3 0  9997
2 36459 074.0192 050.8403 0141910 059.9531 301.5596 14.10201920231858
1 36461U 93036BBL 18241.62581683  .00011394  00000-0  42505-3 0  9993
2 36461  73.9335 217.2419 0045229 351.6606   8.3836 15.26491268477681
1 36463U 93036BBN 11261.76257337 +.00006891 +00000-0 +19098-2 0  9997
2 36463 074.0422 055.8246 0026538 049.8201 313.1857 14.46548218108337
1 36467U 93036BBS 18238.38880881  .00000876  00000-0  35336-3 0  9997
2 36467  73.8621 240.3009 0134013 336.5557  89.6490 14.24766751461571
1 36470U 93036BBV 18238.97716931 +.00000672 +00000-0 +18183-3 0  9995
2 36470 073.8702 344.7226 0068182 352.5027 007.5105 14.48490329272335
1 36476U 93036BCB 18239.10252827  .00001306  00000-0  31121-3 0  9998
2 36476  74.0333  28.4253 0020909  33.0936 327.1530 14.54657525483523
1 36479U 93036BCE 18242.37233224  .00002653  00000-0  19082-3 0  9992
2 36479  74.0278  16.6334 0049267  58.2669 302.3307 15.03841640486611
1 36482U 97051VY  18196.62219738 +.00000949 +00000-0 +22573-3 0  9992
2 36482 086.3693 077.4287 0031014 322.8727 037.0832 14.52574551000018
1 36483U 97051VZ  18241.91739938 +.00000302 +00000-0 +95298-4 0  9993
2 36483 086.3804 098.5183 0007920 232.3166 127.7313 14.36918098268605
1 36485U 97051WB  18242.24927840  .00002032  00000-0  77060-3 0  9991
2 36485  86.4477 171.1079 0107732 232.9954 126.1343 14.27539244454750
1 36486U 97051WC  18241.20259261 +.00001822 +00000-0 +35822-3 0  9998
2 36486 086.3508 056.8490 0020990 076.8801 283.4750 14.61973058273411
1 36487U 97051WD  18242.10636833  .00002547  00000-0  12338-2 0  9994
2 36487  86.3777 177.3404 0170439 128.2365 233.4299 14.10760929453132
1 36488U 97051WE  18241.96007439  .00028347  00000-0  12778-2 0  9996
2 36488  86.4332  67.2539 0009141 109.4342 250.7891 15.20871562485845
1 36489U 97051WF  17251.26372416  .00020841  00000-0  26781-2 0  9990
2 36489  86.4165 234.3832 0013266  87.4959 272.7781 14.81010893440958
1 36490U 97051WG  18242.31782363  .00000607  00000-0  16535-3 0  9990
2 36490  86.3744  83.1851 0001790  41.4200 318.7138 14.45873621478472
1 36492U 97051WJ  18241.60000542  .00001607  00000-0  35813-3 0  9996
2 36492  86.4231  98.0461 0015253  23.2656 336.9239 14.56264183487541
1 36493U 97051WK  18241.31259353  .00000579  00000-0  16494-3 0  9992
2 36493  86.3613  81.5439 0014626 224.9735 135.0282 14.43577082485622
1 36495U 97051WM  18239.96342314  .00013028  00000-0  12539-2 0  9990
2 36495  86.3919  68.9757 0007401 252.4344 107.6076 14.92866876464012
